ICEYE-X33               
1 60548U 24149CJ  26202.50331097  .00003313  00000+0  26481-3 0  9996
2 60548  97.7380 281.4761 0001849  66.3966 293.7452 15.00922487105350
ICEYE-X40               
1 60549U 24149CK  26202.16845208  .00001755  00000+0  15315-3 0  9995
2 60549  97.6800 278.1192 0003271 347.2707  12.8432 14.98101188105163
SATELIOT_1              
1 60550U 24149CL  26202.15699696  .00001865  00000+0  16214-3 0  9995
2 60550  97.6736 277.4893 0005050 334.7616  25.3359 14.98181033105153
BRO-14                  
1 60551U 24149CM  26202.63689043  .00000961  00000+0  90163-4 0  9996
2 60551  97.6862 277.7951 0006226 357.3377   2.7810 14.96249737105147
SATELIOT_3              
1 60552U 24149CN  26202.60045006  .00001158  00000+0  10258-3 0  9994
2 60552  97.6804 278.7501 0004407 337.7812  22.3218 14.98174141105239
BRO-15                  
1 60553U 24149CP  26202.15152412  .00000918  00000+0  86466-4 0  9993
2 60553  97.6789 276.8884 0007116 345.2617  14.8396 14.96228757105089
UM5-RIBAT               
1 60554U 24149CQ  26202.20034055  .00001555  00000+0  12575-3 0  9999
2 60554  97.6593 279.5380 0000483 257.5665 102.5505 15.01235079105294
UM5-EOSAT               
1 60555U 24149CR  26202.48876109  .00002294  00000+0  18072-3 0  9993
2 60555  97.6777 280.8438 0008827  18.9413 341.2138 15.01755441105360
LASARSAT                
1 62391U 24247Q   26202.06206775  .00027288  00000+0  50950-3 0  9993
2 62391  44.9738  71.5646 0008248 202.6776 157.3752 15.48302336 88561
CROCUBE                 
1 62394U 24247T   26202.65944481  .00041735  00000+0  71515-3 0  9997
2 62394  44.9713  64.9220 0008646 212.7388 147.2968 15.50548927 88696
TEVEL2-4                
1 63213U 25052D   26202.66245360  .00018876  00000+0  54489-3 0  9995
2 63213  97.3852  99.1315 0002940  39.0087 321.1368 15.35722053 75404
TEVEL2-5                
1 63214U 25052E   26202.23085156  .00013792  00000+0  40164-3 0  9991
2 63214  97.3850  98.6364 0003007  41.9307 318.2166 15.35513919 75337
TEVEL2-6                
1 63215U 25052F   26202.24396586  .00014542  00000+0  42379-3 0  9999
2 63215  97.3856  98.6345 0003085  43.9320 316.2168 15.35478834 75332
TEVEL2-1                
1 63217U 25052H   26201.95933923  .00012768  00000+0  37939-3 0  9994
2 63217  97.3828  97.9321 0003745  47.7905 312.3656 15.34894951 75276
TEVEL2-3                
1 63218U 25052J   26202.27861424  .00014156  00000+0  41933-3 0  9999
2 63218  97.3838  98.2781 0003518  50.2315 309.9238 15.34968740 75326
TEVEL2-2                
1 63219U 25052K   26202.22019497  .00013942  00000+0  41374-3 0  9991
2 63219  97.3827  98.1963 0003809  47.4460 312.7104 15.34915096 75317
TEVEL2-9                
1 63237U 25052AD  26202.24254238  .00012991  00000+0  41133-3 0  9993
2 63237  97.3890  97.5180 0007083  39.6084 320.5675 15.32853308 75241
TEVEL2-7                
1 63238U 25052AE  26202.15968763  .00012126  00000+0  38803-3 0  9999
2 63238  97.3894  97.3362 0007217  40.1547 320.0227 15.32531062 75222
TEVEL2-8                
1 63239U 25052AF  26202.49473660  .00014980  00000+0  47863-3 0  9990
2 63239  97.3893  97.6468 0007229  39.9501 320.2272 15.32528866 75276
FORESAIL-1 PRIME        
1 66778U 25276DS  26202.45252716  .00003328  00000+0  16241-3 0  9992
2 66778  97.4183 275.0997 0002371  29.5644 330.5724 15.18971994 35602
