OBJECT_NAME,OBJECT_ID,EPOCH,MEAN_MOTION,ECCENTRICITY,INCLINATION,RA_OF_ASC_NODE,ARG_OF_PERICENTER,MEAN_ANOMALY,EPHEMERIS_TYPE,CLASSIFICATION_TYPE,NORAD_CAT_ID,ELEMENT_SET_NO,REV_AT_EPOCH,BSTAR,MEAN_MOTION_DOT,MEAN_MOTION_DDOT
ICEYE-X33,2024-149CJ,2026-07-21T12:04:46.067808,15.00922487,.00018498,97.7380,281.4761,66.3966,293.7452,0,U,60548,999,10535,.26481367E-3,.3313E-4,0
ICEYE-X40,2024-149CK,2026-07-21T04:02:34.259712,14.98101188,.00032719,97.6800,278.1192,347.2707,12.8432,0,U,60549,999,10516,.15315153E-3,.1755E-4,0
SATELIOT_1,2024-149CL,2026-07-21T03:46:04.537344,14.98181033,.00050508,97.6736,277.4893,334.7616,25.3359,0,U,60550,999,10515,.1621397E-3,.1865E-4,0
BRO-14,2024-149CM,2026-07-21T15:17:07.333152,14.96249737,.00062262,97.6862,277.7951,357.3377,2.7810,0,U,60551,999,10514,.90163059E-4,.961E-5,0
SATELIOT_3,2024-149CN,2026-07-21T14:24:38.885184,14.98174141,.00044072,97.6804,278.7501,337.7812,22.3218,0,U,60552,999,10523,.10257802E-3,.1158E-4,0
BRO-15,2024-149CP,2026-07-21T03:38:11.683968,14.96228757,.00071168,97.6789,276.8884,345.2617,14.8396,0,U,60553,999,10508,.86466371E-4,.918E-5,0
UM5-RIBAT,2024-149CQ,2026-07-21T04:48:29.423520,15.01235079,.0000483,97.6593,279.5380,257.5665,102.5505,0,U,60554,999,10529,.12574589E-3,.1555E-4,0
UM5-EOSAT,2024-149CR,2026-07-21T11:43:48.958176,15.01755441,.00088274,97.6777,280.8438,18.9413,341.2138,0,U,60555,999,10536,.18071849E-3,.2294E-4,0
LASARSAT,2024-247Q,2026-07-21T01:29:22.653600,15.48302336,.00082489,44.9738,71.5646,202.6776,157.3752,0,U,62391,999,8856,.50949715E-3,.27288E-3,0
CROCUBE,2024-247T,2026-07-21T15:49:36.031584,15.50548927,.00086465,44.9713,64.9220,212.7388,147.2968,0,U,62394,999,8869,.71514974E-3,.41735E-3,0
TEVEL2-4,2025-052D,2026-07-21T15:53:55.991040,15.35722053,.00029408,97.3852,99.1315,39.0087,321.1368,0,U,63213,999,7540,.54488916E-3,.18876E-3,0
TEVEL2-5,2025-052E,2026-07-21T05:32:25.574784,15.35513919,.00030072,97.3850,98.6364,41.9307,318.2166,0,U,63214,999,7533,.40163517E-3,.13792E-3,0
TEVEL2-6,2025-052F,2026-07-21T05:51:18.650304,15.35478834,.0003085,97.3856,98.6345,43.9320,316.2168,0,U,63215,999,7533,.4237897E-3,.14542E-3,0
TEVEL2-1,2025-052H,2026-07-20T23:01:26.909472,15.34894951,.00037459,97.3828,97.9321,47.7905,312.3656,0,U,63217,999,7527,.37939109E-3,.12768E-3,0
TEVEL2-3,2025-052J,2026-07-21T06:41:12.270336,15.34968740,.00035182,97.3838,98.2781,50.2315,309.9238,0,U,63218,999,7532,.41932714E-3,.14156E-3,0
TEVEL2-2,2025-052K,2026-07-21T05:17:04.845408,15.34915096,.00038099,97.3827,98.1963,47.4460,312.7104,0,U,63219,999,7531,.41373721E-3,.13942E-3,0
TEVEL2-9,2025-052AD,2026-07-21T05:49:15.661632,15.32853308,.00070834,97.3890,97.5180,39.6084,320.5675,0,U,63237,999,7524,.41132929E-3,.12991E-3,0
TEVEL2-7,2025-052AE,2026-07-21T03:49:57.011232,15.32531062,.00072173,97.3894,97.3362,40.1547,320.0227,0,U,63238,999,7522,.38802823E-3,.12126E-3,0
TEVEL2-8,2025-052AF,2026-07-21T11:52:25.242240,15.32528866,.00072293,97.3893,97.6468,39.9501,320.2272,0,U,63239,999,7527,.47862667E-3,.1498E-3,0
FORESAIL-1 PRIME,2025-276DS,2026-07-21T10:51:38.346624,15.18971994,.00023716,97.4183,275.0997,29.5644,330.5724,0,U,66778,999,3560,.1624144E-3,.3328E-4,0
